{"fetched_at":"2026-07-12T17:32:25.735Z","source":"https://celestrak.org/NORAD/elements/gp.php?GROUP=planet&FORMAT=JSON","constellation":"superdove","records":[{"OBJECT_NAME":"FLOCK 4G-25","OBJECT_ID":"2025-009AP","EPOCH":"2026-07-12T04:17:18.351168","CLASSIFICATION_TYPE":"U","MEAN_MOTION":15.29968528,"ECCENTRICITY":0.00021356,"INCLINATION":97.402,"RA_OF_ASC_NODE":275.153,"ARG_OF_PERICENTER":170.1189,"MEAN_ANOMALY":190.0094,"EPHEMERIS_TYPE":0,"NORAD_CAT_ID":62646,"ELEMENT_SET_NO":999,"REV_AT_EPOCH":8274,"BSTAR":0.00023134256,"MEAN_MOTION_DOT":0.00006636,"MEAN_MOTION_DDOT":0},{"OBJECT_NAME":"FLOCK 4G-23","OBJECT_ID":"2025-009AQ","EPOCH":"2026-07-12T03:55:36.973632","CLASSIFICATION_TYPE":"U","MEAN_MOTION":15.34604315,"ECCENTRICITY":0.00032099,"INCLINATION":97.3908,"RA_OF_ASC_NODE":274.8446,"ARG_OF_PERICENTER":174.4233,"MEAN_ANOMALY":185.7046,"EPHEMERIS_TYPE":0,"NORAD_CAT_ID":62647,"ELEMENT_SET_NO":999,"REV_AT_EPOCH":8275,"BSTAR":0.00082337269,"MEAN_MOTION_DOT":0.00027598,"MEAN_MOTION_DDOT":0},{"OBJECT_NAME":"FLOCK 4G-34","OBJECT_ID":"2025-009AT","EPOCH":"2026-07-12T04:22:59.249280","CLASSIFICATION_TYPE":"U","MEAN_MOTION":15.29737327,"ECCENTRICITY":0.00020739,"INCLINATION":97.3968,"RA_OF_ASC_NODE":274.647,"ARG_OF_PERICENTER":169.1571,"MEAN_ANOMALY":190.9715,"EPHEMERIS_TYPE":0,"NORAD_CAT_ID":62650,"ELEMENT_SET_NO":999,"REV_AT_EPOCH":8273,"BSTAR":0.00021827633,"MEAN_MOTION_DOT":0.00006212,"MEAN_MOTION_DDOT":0},{"OBJECT_NAME":"FLOCK 4G-21","OBJECT_ID":"2025-009AU","EPOCH":"2026-07-12T04:09:07.904160","CLASSIFICATION_TYPE":"U","MEAN_MOTION":15.32729672,"ECCENTRICITY":0.0002847,"INCLINATION":97.3992,"RA_OF_ASC_NODE":275.6257,"ARG_OF_PERICENTER":199.8851,"MEAN_ANOMALY":160.2281,"EPHEMERIS_TYPE":0,"NORAD_CAT_ID":62651,"ELEMENT_SET_NO":999,"REV_AT_EPOCH":8278,"BSTAR":0.00071228215,"MEAN_MOTION_DOT":0.00022478,"MEAN_MOTION_DDOT":0},{"OBJECT_NAME":"FLOCK 4G-31","OBJECT_ID":"2025-009AV","EPOCH":"2026-07-12T05:05:29.656320","CLASSIFICATION_TYPE":"U","MEAN_MOTION":15.29541873,"ECCENTRICITY":0.00016073,"INCLINATION":97.3971,"RA_OF_ASC_NODE":274.6489,"ARG_OF_PERICENTER":163.6417,"MEAN_ANOMALY":196.4876,"EPHEMERIS_TYPE":0,"NORAD_CAT_ID":62652,"ELEMENT_SET_NO":999,"REV_AT_EPOCH":8273,"BSTAR":0.0002046931,"MEAN_MOTION_DOT":0.00005785,"MEAN_MOTION_DDOT":0},{"OBJECT_NAME":"FLOCK 4G-4","OBJECT_ID":"2025-009BC","EPOCH":"2026-07-12T04:32:54.586752","CLASSIFICATION_TYPE":"U","MEAN_MOTION":15.32008304,"ECCENTRICITY":0.00044072,"INCLINATION":97.3951,"RA_OF_ASC_NODE":274.4277,"ARG_OF_PERICENTER":200.7584,"MEAN_ANOMALY":159.348,"EPHEMERIS_TYPE":0,"NORAD_CAT_ID":62659,"ELEMENT_SET_NO":999,"REV_AT_EPOCH":14033,"BSTAR":0.00071323048,"MEAN_MOTION_DOT":0.00022008,"MEAN_MOTION_DDOT":0},{"OBJECT_NAME":"FLOCK 4G-6","OBJECT_ID":"2025-009BD","EPOCH":"2026-07-12T11:07:44.697792","CLASSIFICATION_TYPE":"U","MEAN_MOTION":15.29946139,"ECCENTRICITY":0.0002665,"INCLINATION":97.3947,"RA_OF_ASC_NODE":274.7505,"ARG_OF_PERICENTER":212.8251,"MEAN_ANOMALY":147.2824,"EPHEMERIS_TYPE":0,"NORAD_CAT_ID":62660,"ELEMENT_SET_NO":999,"REV_AT_EPOCH":14036,"BSTAR":0.00021644,"MEAN_MOTION_DOT":0.00006199,"MEAN_MOTION_DDOT":0},{"OBJECT_NAME":"FLOCK 4G-2","OBJECT_ID":"2025-009BE","EPOCH":"2026-07-11T19:17:49.089696","CLASSIFICATION_TYPE":"U","MEAN_MOTION":15.30284942,"ECCENTRICITY":0.00034524,"INCLINATION":97.4013,"RA_OF_ASC_NODE":274.731,"ARG_OF_PERICENTER":215.2412,"MEAN_ANOMALY":144.8601,"EPHEMERIS_TYPE":0,"NORAD_CAT_ID":62661,"ELEMENT_SET_NO":999,"REV_AT_EPOCH":14029,"BSTAR":0.0002190944,"MEAN_MOTION_DOT":0.00006342,"MEAN_MOTION_DDOT":0},{"OBJECT_NAME":"FLOCK 4G-5","OBJECT_ID":"2025-009BG","EPOCH":"2026-07-12T04:37:05.564928","CLASSIFICATION_TYPE":"U","MEAN_MOTION":15.30872957,"ECCENTRICITY":0.00031399,"INCLINATION":97.403,"RA_OF_ASC_NODE":275.5146,"ARG_OF_PERICENTER":191.5242,"MEAN_ANOMALY":168.5927,"EPHEMERIS_TYPE":0,"NORAD_CAT_ID":62663,"ELEMENT_SET_NO":999,"REV_AT_EPOCH":8276,"BSTAR":0.00018825254,"MEAN_MOTION_DOT":0.00005539,"MEAN_MOTION_DDOT":0},{"OBJECT_NAME":"FLOCK 4G-1","OBJECT_ID":"2025-009BK","EPOCH":"2026-07-12T04:20:37.760640","CLASSIFICATION_TYPE":"U","MEAN_MOTION":15.30149951,"ECCENTRICITY":0.00037092,"INCLINATION":97.4026,"RA_OF_ASC_NODE":275.0856,"ARG_OF_PERICENTER":209.9007,"MEAN_ANOMALY":150.2022,"EPHEMERIS_TYPE":0,"NORAD_CAT_ID":62666,"ELEMENT_SET_NO":999,"REV_AT_EPOCH":8273,"BSTAR":0.00021997472,"MEAN_MOTION_DOT":0.00006342,"MEAN_MOTION_DDOT":0},{"OBJECT_NAME":"FLOCK 4G-14","OBJECT_ID":"2025-009BL","EPOCH":"2026-07-12T05:04:08.249376","CLASSIFICATION_TYPE":"U","MEAN_MOTION":15.29696171,"ECCENTRICITY":0.00038623,"INCLINATION":97.4029,"RA_OF_ASC_NODE":274.9144,"ARG_OF_PERICENTER":205.2402,"MEAN_ANOMALY":154.865,"EPHEMERIS_TYPE":0,"NORAD_CAT_ID":62667,"ELEMENT_SET_NO":999,"REV_AT_EPOCH":8272,"BSTAR":0.00020933362,"MEAN_MOTION_DOT":0.00005947,"MEAN_MOTION_DDOT":0},{"OBJECT_NAME":"FLOCK 4G-10","OBJECT_ID":"2025-009BP","EPOCH":"2026-07-12T05:20:08.441952","CLASSIFICATION_TYPE":"U","MEAN_MOTION":15.29797695,"ECCENTRICITY":0.00033963,"INCLINATION":97.3925,"RA_OF_ASC_NODE":274.2267,"ARG_OF_PERICENTER":224.8834,"MEAN_ANOMALY":135.2132,"EPHEMERIS_TYPE":0,"NORAD_CAT_ID":62670,"ELEMENT_SET_NO":999,"REV_AT_EPOCH":14036,"BSTAR":0.00022477502,"MEAN_MOTION_DOT":0.00006411,"MEAN_MOTION_DDOT":0},{"OBJECT_NAME":"FLOCK 4G-36","OBJECT_ID":"2025-009BU","EPOCH":"2026-07-12T03:37:59.400480","CLASSIFICATION_TYPE":"U","MEAN_MOTION":15.29769493,"ECCENTRICITY":0.00039757,"INCLINATION":97.4019,"RA_OF_ASC_NODE":274.776,"ARG_OF_PERICENTER":211.7393,"MEAN_ANOMALY":148.3609,"EPHEMERIS_TYPE":0,"NORAD_CAT_ID":62675,"ELEMENT_SET_NO":999,"REV_AT_EPOCH":8271,"BSTAR":0.00023414087,"MEAN_MOTION_DOT":0.00006676,"MEAN_MOTION_DDOT":0},{"OBJECT_NAME":"FLOCK 4G-15","OBJECT_ID":"2025-009BX","EPOCH":"2026-07-12T05:22:25.130208","CLASSIFICATION_TYPE":"U","MEAN_MOTION":15.29860589,"ECCENTRICITY":0.00042663,"INCLINATION":97.4019,"RA_OF_ASC_NODE":274.9912,"ARG_OF_PERICENTER":208.6121,"MEAN_ANOMALY":151.4886,"EPHEMERIS_TYPE":0,"NORAD_CAT_ID":62678,"ELEMENT_SET_NO":999,"REV_AT_EPOCH":14037,"BSTAR":0.00022369865,"MEAN_MOTION_DOT":0.00006393,"MEAN_MOTION_DDOT":0},{"OBJECT_NAME":"FLOCK 4G-30","OBJECT_ID":"2025-009BY","EPOCH":"2026-07-12T04:11:59.554176","CLASSIFICATION_TYPE":"U","MEAN_MOTION":15.33798305,"ECCENTRICITY":0.00040414,"INCLINATION":97.3923,"RA_OF_ASC_NODE":274.4507,"ARG_OF_PERICENTER":206.2382,"MEAN_ANOMALY":153.8657,"EPHEMERIS_TYPE":0,"NORAD_CAT_ID":62679,"ELEMENT_SET_NO":999,"REV_AT_EPOCH":14037,"BSTAR":0.0007504791,"MEAN_MOTION_DOT":0.00024507,"MEAN_MOTION_DDOT":0},{"OBJECT_NAME":"FLOCK 4G-18","OBJECT_ID":"2025-009BZ","EPOCH":"2026-07-12T04:27:46.658880","CLASSIFICATION_TYPE":"U","MEAN_MOTION":15.32063249,"ECCENTRICITY":0.00058927,"INCLINATION":97.4013,"RA_OF_ASC_NODE":274.8611,"ARG_OF_PERICENTER":220.9815,"MEAN_ANOMALY":139.0984,"EPHEMERIS_TYPE":0,"NORAD_CAT_ID":62680,"ELEMENT_SET_NO":999,"REV_AT_EPOCH":14036,"BSTAR":0.00074045695,"MEAN_MOTION_DOT":0.00022898,"MEAN_MOTION_DDOT":0}]}
