FLOCK 4G-25             
1 62646U 25009AP  26193.17868462  .00006636  00000+0  23134-3 0  9999
2 62646  97.4020 275.1530 0002135 170.1189 190.0094 15.29968528 82748
FLOCK 4G-23             
1 62647U 25009AQ  26193.16362238  .00027598  00000+0  82337-3 0  9999
2 62647  97.3908 274.8446 0003209 174.4233 185.7046 15.34604315 82751
FLOCK 4G-34             
1 62650U 25009AT  26193.18263020  .00006212  00000+0  21828-3 0  9992
2 62650  97.3968 274.6470 0002073 169.1571 190.9715 15.29737327 82733
FLOCK 4G-21             
1 62651U 25009AU  26193.17300815  .00022478  00000+0  71228-3 0  9997
2 62651  97.3992 275.6257 0002847 199.8851 160.2281 15.32729672 82786
FLOCK 4G-31             
1 62652U 25009AV  26193.21214880  .00005785  00000+0  20469-3 0  9992
2 62652  97.3971 274.6489 0001607 163.6417 196.4876 15.29541873 82737
FLOCK 4G-4              
1 62659U 25009BC  26193.18952068  .00022008  00000+0  71323-3 0  9994
2 62659  97.3951 274.4277 0004407 200.7584 159.3480 15.32008304140335
FLOCK 4G-6              
1 62660U 25009BD  26193.46371179  .00006199  00000+0  21644-3 0  9999
2 62660  97.3947 274.7505 0002665 212.8251 147.2824 15.29946140140364
FLOCK 4G-2              
1 62661U 25009BE  26192.80404039  .00006342  00000+0  21909-3 0  9993
2 62661  97.4013 274.7310 0003452 215.2412 144.8601 15.30284942140290
FLOCK 4G-5              
1 62663U 25009BG  26193.19242552  .00005539  00000+0  18825-3 0  9998
2 62663  97.4030 275.5146 0003139 191.5242 168.5927 15.30872957 82766
FLOCK 4G-1              
1 62666U 25009BK  26193.18099260  .00006342  00000+0  21997-3 0  9993
2 62666  97.4026 275.0856 0003709 209.9007 150.2022 15.30149951 82735
FLOCK 4G-14             
1 62667U 25009BL  26193.21120659  .00005947  00000+0  20933-3 0  9994
2 62667  97.4029 274.9144 0003862 205.2402 154.8650 15.29696171 82720
FLOCK 4G-10             
1 62670U 25009BP  26193.22231993  .00006411  00000+0  22478-3 0  9996
2 62670  97.3925 274.2267 0003396 224.8834 135.2132 15.29797695140361
FLOCK 4G-36             
1 62675U 25009BU  26193.15138195  .00006676  00000+0  23414-3 0  9997
2 62675  97.4019 274.7760 0003975 211.7393 148.3609 15.29769493 82715
FLOCK 4G-15             
1 62678U 25009BX  26193.22390197  .00006393  00000+0  22370-3 0  9996
2 62678  97.4019 274.9912 0004266 208.6121 151.4886 15.29860589140374
FLOCK 4G-30             
1 62679U 25009BY  26193.17499484  .00024507  00000+0  75048-3 0  9997
2 62679  97.3923 274.4507 0004041 206.2382 153.8657 15.33798305140370
FLOCK 4G-18             
1 62680U 25009BZ  26193.18595670  .00022898  00000+0  74046-3 0  9992
2 62680  97.4013 274.8611 0005892 220.9815 139.0984 15.32063249140361
